NORAD_CAT_ID,OBJECT_NAME,OBJECT_TYPE,EPOCH,MEAN_MOTION,ECCENTRICITY,INCLINATION,RA_OF_ASC_NODE,ARG_OF_PERICENTER,MEAN_ANOMALY,BSTAR,MEAN_MOTION_DOT,MEAN_MOTION_DDOT,TLE_LINE0,TLE_LINE1,TLE_LINE2,SEMIMAJOR_AXIS,PERIOD,APOGEE,PERIGEE,DECAYED
53993.0,STARLINK-5121,PAYLOAD,2023-02-05 12:56:57,15.08839135,0.0001303,53.2168,233.3369,86.138,273.9761,5.4032e-05,5.72e-06,0.0,0 STARLINK-5121,1 53993U 22125AF  23036.53955566  .00000572  00000-0  54032-4 0  9991,2 53993  53.2168 233.3369 0001303  86.1380 273.9761 15.08839135 19219,6917.883,95.438,540.649,538.847,0.0
53993.0,STARLINK-5121,PAYLOAD,2023-02-05 19:18:29,15.08842671,0.0001281,53.2169,232.1474,86.8857,273.2282,7.9269e-05,9.74e-06,0.0,0 STARLINK-5121,1 53993U 22125AF  23036.80451252  .00000974  00000-0  79269-4 0  9999,2 53993  53.2169 232.1474 0001281  86.8857 273.2282 15.08842671 19338,6917.872,95.437,540.623,538.851,0.0
53993.0,STARLINK-5121,PAYLOAD,2023-02-06 08:01:35,15.08840796,0.0001231,53.2173,229.7689,83.8002,276.313,7.8266e-05,9.58e-06,0.0,0 STARLINK-5121,1 53993U 22125AF  23037.33443347  .00000958  00000-0  78266-4 0  9992,2 53993  53.2173 229.7689 0001231  83.8002 276.3130 15.08840796 19339,6917.878,95.438,540.595,538.891,0.0
53993.0,STARLINK-5121,PAYLOAD,2023-02-06 19:09:16,15.08842998,0.0001231,53.2173,227.687,86.9088,273.2045,7.9603e-05,9.79e-06,0.0,0 STARLINK-5121,1 53993U 22125AF  23037.79811173  .00000979  00000-0  79603-4 0  9997,2 53993  53.2173 227.6870 0001231  86.9088 273.2045 15.08842998 19401,6917.871,95.437,540.588,538.885,0.0
53993.0,STARLINK-5121,PAYLOAD,2023-02-07 12:38:31,15.08840251,0.0001212,53.2173,224.4161,88.0065,272.1066,2.8037e-05,1.58e-06,0.0,0 STARLINK-5121,1 53993U 22125AF  23038.52675459  .00000158  00000-0  28037-4 0  9998,2 53993  53.2173 224.4161 0001212  88.0065 272.1066 15.08840251 19519,6917.88,95.438,540.583,538.906,0.0
53993.0,STARLINK-5121,PAYLOAD,2023-02-07 19:00:04,15.08841482,0.0001189,53.2174,223.2267,88.2424,271.8705,3.4019e-05,2.54e-06,0.0,0 STARLINK-5121,1 53993U 22125AF  23038.79171324  .00000254  00000-0  34019-4 0  9993,2 53993  53.2174 223.2267 0001189  88.2424 271.8705 15.08841482 19634,6917.876,95.437,540.563,538.918,0.0
53993.0,STARLINK-5121,PAYLOAD,2023-02-08 07:43:09,15.08837595,0.0001194,53.2172,220.8478,90.0691,270.0438,3.2598e-05,2.31e-06,0.0,0 STARLINK-5121,1 53993U 22125AF  23039.32163545  .00000231  00000-0  32598-4 0  9994,2 53993  53.2172 220.8478 0001194  90.0691 270.0438 15.08837595 19636,6917.888,95.438,540.579,538.927,0.0
53993.0,STARLINK-5121,PAYLOAD,2023-02-08 18:50:51,15.0884029,0.0001086,53.2175,218.7658,99.608,260.5035,3.5525e-05,2.78e-06,0.0,0 STARLINK-5121,1 53993U 22125AF  23039.78531387  .00000278  00000-0  35525-4 0  9991,2 53993  53.2175 218.7658 0001086  99.6080 260.5035 15.08840290 19703,6917.88,95.438,540.496,538.993,0.0
53993.0,STARLINK-5121,PAYLOAD,2023-02-09 04:23:10,15.08838675,0.0001067,53.2176,216.9812,90.9063,269.2051,4.2881e-05,3.95e-06,0.0,0 STARLINK-5121,1 53993U 22125AF  23040.18275524  .00000395  00000-0  42881-4 0  9998,2 53993  53.2176 216.9812 0001067  90.9063 269.2051 15.08838675 19764,6917.884,95.438,540.488,539.011,0.0
53993.0,STARLINK-5121,PAYLOAD,2023-02-09 18:41:38,15.08838735,9.35e-05,53.2176,214.3077,89.5186,270.5913,4.2723e-05,3.92e-06,0.0,0 STARLINK-5121,1 53993U 22125AF  23040.77891658  .00000392  00000-0  42723-4 0  9997,2 53993  53.2176 214.3077 0000935  89.5186 270.5913 15.08838735 19930,6917.884,95.438,540.396,539.102,0.0
53993.0,STARLINK-5121,PAYLOAD,2023-02-10 04:13:56,15.08851178,0.0001309,53.2178,212.5234,142.2824,217.826,-5.2664e-05,-1.126e-05,0.0,0 STARLINK-5121,1 53993U 22125AF  23041.17634964 -.00001126  00000-0 -52664-4 0  9990,2 53993  53.2178 212.5234 0001309 142.2824 217.8260 15.08851178 19990,6917.846,95.437,540.617,538.806,0.0
53993.0,STARLINK-5121,PAYLOAD,2023-02-10 15:21:39,15.08833056,9.61e-05,53.218,210.4418,84.3666,275.7436,2.4503e-05,1.02e-06,0.0,0 STARLINK-5121,1 53993U 22125AF  23041.64004277  .00000102  00000-0  24503-4 0  9992,2 53993  53.2180 210.4418 0000961  84.3666 275.7436 15.08833056 20060,6917.902,95.438,540.431,539.102,0.0
53993.0,STARLINK-5121,PAYLOAD,2023-02-10 16:57:02,15.08833731,0.0001016,53.2178,210.1445,83.5825,276.5283,3.4804e-05,2.66e-06,0.0,0 STARLINK-5121,1 53993U 22125AF  23041.70628242  .00000266  00000-0  34804-4 0  9999,2 53993  53.2178 210.1445 0001016  83.5825 276.5283 15.08833731 19993,6917.9,95.438,540.467,539.062,0.0
53993.0,STARLINK-5121,PAYLOAD,2023-02-11 04:04:44,15.08835898,0.0001049,53.2183,208.0622,88.9313,271.18,3.6738e-05,2.97e-06,0.0,0 STARLINK-5121,1 53993U 22125AF  23042.16996196  .00000297  00000-0  36738-4 0  9998,2 53993  53.2183 208.0622 0001049  88.9313 271.1800 15.08835898 20061,6917.893,95.438,540.484,539.032,0.0
53993.0,STARLINK-5121,PAYLOAD,2023-02-11 13:37:04,15.08829088,0.0001029,53.2184,206.2775,86.2079,273.9031,4.6311e-06,-2.14e-06,0.0,0 STARLINK-5121,1 53993U 22125AF  23042.56740923 -.00000214  00000-0  46311-5 0  9996,2 53993  53.2184 206.2775 0001029  86.2079 273.9031 15.08829088 20126,6917.914,95.438,540.491,539.067,0.0
53993.0,STARLINK-5121,PAYLOAD,2023-02-11 16:47:50,15.08835172,0.0001017,53.2178,205.6837,89.5335,270.5774,-5.3022e-06,-3.72e-06,0.0,0 STARLINK-5121,1 53993U 22125AF  23042.69988651 -.00000372  00000-0 -53022-5 0  9995,2 53993  53.2178 205.6837 0001017  89.5335 270.5774 15.08835172 20228,6917.895,95.438,540.464,539.057,0.0
53993.0,STARLINK-5121,PAYLOAD,2023-02-12 03:55:31,15.0884986,0.000106,53.2179,203.602,82.2271,277.8841,0.00011428,1.532e-05,0.0,0 STARLINK-5121,1 53993U 22125AF  23043.16355345  .00001532  00000-0  11428-3 0  9995,2 53993  53.2179 203.6020 0001060  82.2271 277.8841 15.08849860 20299,6917.85,95.437,540.449,538.982,0.0
53993.0,STARLINK-5121,PAYLOAD,2023-02-12 16:38:32,15.08891005,0.0002006,53.2184,201.223,76.2951,283.8265,0.00049365,7.588e-05,0.0,0 STARLINK-5121,1 53993U 22125AF  23043.69342990  .00007588  00000-0  49365-3 0  9993,2 53993  53.2184 201.2230 0002006  76.2951 283.8265 15.08891005 20375,6917.724,95.434,540.977,538.202,0.0
53993.0,STARLINK-5121,PAYLOAD,2023-02-13 00:35:01,15.09188273,0.0001609,53.2187,199.7344,80.9889,279.1285,0.0027723,0.00044537,0.0,0 STARLINK-5121,1 53993U 22125AF  23044.02432623  .00044537  00000-0  27723-2 0  9992,2 53993  53.2187 199.7344 0001609  80.9889 279.1285 15.09188273 20428,6916.816,95.416,539.794,537.568,0.0
53993.0,STARLINK-5121,PAYLOAD,2023-02-13 10:07:02,15.09320967,0.0001385,53.2193,197.9486,82.7454,277.3696,0.003654,0.0005913,0.0,0 STARLINK-5121,1 53993U 22125AF  23044.42156024  .00059130  00000-0  36540-2 0  9996,2 53993  53.2193 197.9486 0001385  82.7454 277.3696 15.09320967 20481,6916.411,95.407,539.234,537.318,0.0
53993.0,STARLINK-5121,PAYLOAD,2023-02-13 11:42:26,15.093012,0.0001681,53.2179,197.652,77.2074,282.9107,0.0034531,0.00055806,0.0,0 STARLINK-5121,1 53993U 22125AF  23044.48780457  .00055806  00000-0  34531-2 0  9999,2 53993  53.2179 197.6520 0001681  77.2074 282.9107 15.09301200 20418,6916.471,95.408,539.499,537.173,0.0
53993.0,STARLINK-5121,PAYLOAD,2023-02-13 16:28:29,15.09329075,0.0001464,53.218,196.7595,88.8029,271.3131,0.0035151,0.00056865,0.0,0 STARLINK-5121,1 53993U 22125AF  23044.68645370  .00056865  00000-0  35151-2 0  9990,2 53993  53.2180 196.7595 0001464  88.8029 271.3131 15.09329075 20520,6916.386,95.407,539.263,537.238,0.0
53993.0,STARLINK-5121,PAYLOAD,2023-02-14 05:11:18,15.0937256,0.0001989,53.2161,194.3805,87.9047,272.2173,0.0031693,0.00051264,0.0,0 STARLINK-5121,1 53993U 22125AF  23045.21618744  .00051264  00000-0  31693-2 0  9990,2 53993  53.2161 194.3805 0001989  87.9047 272.2173 15.09372560 20522,6916.253,95.404,539.494,536.742,0.0
53993.0,STARLINK-5121,PAYLOAD,2023-02-14 16:18:43,15.09429016,0.000213,53.2165,192.2983,89.5407,270.583,0.0027949,0.00045206,0.0,0 STARLINK-5121,1 53993U 22125AF  23045.67966879  .00045206  00000-0  27949-2 0  9993,2 53993  53.2165 192.2983 0002130  89.5407 270.5830 15.09429016 20673,6916.081,95.4,539.419,536.472,0.0
53993.0,STARLINK-5121,PAYLOAD,2023-02-14 21:05:15,15.09140739,0.0001156,53.2181,191.4054,77.4606,282.6516,-0.0010923,-0.00017773,0.0,0 STARLINK-5121,1 53993U 22125AF  23045.87865409 -.00017773  00000-0 -10923-2 0  9996,2 53993  53.2181 191.4054 0001156  77.4606 282.6516 15.09140739 20627,6916.961,95.419,539.626,538.027,0.0
53993.0,STARLINK-5121,PAYLOAD,2023-02-15 00:16:05,15.09063957,0.0001462,53.2189,190.8115,80.1737,279.942,-0.001678,-0.00027058,0.0,0 STARLINK-5121,1 53993U 22125AF  23046.01117250 -.00027058  00000-0 -16780-2 0  9991,2 53993  53.2189 190.8115 0001462  80.1737 279.9420 15.09063957 20722,6917.196,95.423,540.072,538.05,0.0
53993.0,STARLINK-5121,PAYLOAD,2023-02-15 12:58:57,15.09153586,0.0001669,53.2169,188.4322,92.3271,267.7913,-0.0034644,-0.00055473,0.0,0 STARLINK-5121,1 53993U 22125AF  23046.54094710 -.00055473  00000-0 -34644-2 0  9995,2 53993  53.2169 188.4322 0001669  92.3271 267.7913 15.09153586 20720,6916.922,95.418,539.941,537.633,0.0
53993.0,STARLINK-5121,PAYLOAD,2023-02-15 16:09:42,15.09142354,0.0001475,53.2181,187.8371,91.0646,269.0516,-0.0034142,-0.00054662,0.0,0 STARLINK-5121,1 53993U 22125AF  23046.67340430 -.00054662  00000-0 -34142-2 0  9994,2 53993  53.2181 187.8371 0001475  91.0646 269.0516 15.09142354 20824,6916.956,95.418,539.842,537.801,0.0
53993.0,STARLINK-5121,PAYLOAD,2023-02-15 20:55:47,15.09119934,0.0001827,53.2165,186.9434,101.6417,258.4781,-0.003137,-0.00050249,0.0,0 STARLINK-5121,1 53993U 22125AF  23046.87208134 -.00050249  00000-0 -31370-2 0  9997,2 53993  53.2165 186.9434 0001827 101.6417 258.4781 15.09119934 20779,6917.025,95.42,540.154,537.626,0.0
53993.0,STARLINK-5121,PAYLOAD,2023-02-16 09:38:49,15.09013689,0.0001357,53.221,184.5669,84.5645,275.5502,-0.0024823,-0.00039763,0.0,0 STARLINK-5121,1 53993U 22125AF  23047.40196358 -.00039763  00000-0 -24823-2 0  9994,2 53993  53.2210 184.5669 0001357  84.5645 275.5502 15.09013689 20933,6917.35,95.427,540.153,538.276,0.0
